EUTELSAT QUANTUM        
1 49056U 21069B   26001.11632817  .00000139  00000+0  00000+0 0  9991
2 49056   0.0114  18.2574 0003756 267.4797 264.6128  1.00269848 16253
EUTELSAT KONNECT VHTS   
1 53765U 22110A   25365.39410322  .00000033  00000+0  00000+0 0  9991
2 53765   0.0570  97.6027 0002831 151.2553 355.7842  1.00273463  5158
EUTELSAT HOTBIRD 13F    
1 54048U 22134A   25365.32485610  .00000103  00000+0  00000+0 0  9995
2 54048   0.0595 288.8393 0002037  63.3159 237.7703  1.00268490 11698
EUTELSAT HOTBIRD 13G    
1 54225U 22146A   25365.32485610  .00000104  00000+0  00000+0 0  9996
2 54225   0.0575 228.1748 0001795 314.0382  47.7187  1.00274826  5786
EUTELSAT 10B            
1 54259U 22157A   26001.25154366  .00000080  00000+0  00000+0 0  9999
2 54259   0.0589  94.9357 0000947  99.8802   6.6395  1.00266461 11357
EUTELSAT 36D            
1 59346U 24059A   26001.04262446  .00000000  00000+0  00000+0 0  9992
2 59346   0.0267  31.2167 0000556 278.8792 201.8419  1.00271395  6473
